ONEWEB-0215             
1 48800U 21045AK  25343.41755818  .00000103  00000+0  23918-3 0  9997
2 48800  87.9005 297.0310 0002376  67.0394 293.0987 13.15549755219342
ONEWEB-0216             
1 48801U 21045AL  25343.57918293  .00000164  00000+0  40178-3 0  9997
2 48801  87.8989 297.0300 0001980  83.1257 277.0098 13.15549757219379
ONEWEB-0239             
1 48802U 21045AM  25343.58392462  .00000070  00000+0  15097-3 0  9991
2 48802  87.8988 297.0437 0002253  59.2942 300.8410 13.15550616219413
ONEWEB-0249             
1 48967U 21060A   25343.51568367  .00000024  00000+0  29260-4 0  9999
2 48967  87.9043 266.5464 0001834  72.0076 288.1255 13.16595273214659
ONEWEB-0250             
1 48968U 21060B   25343.50523008  .00000115  00000+0  23151-3 0  9995
2 48968  87.9043 264.9250 0001485  39.8950 320.2295 13.25820592215084
ONEWEB-0252             
1 48970U 21060D   25343.54734130  .00000165  00000+0  39815-3 0  9991
2 48970  87.9042 266.5335 0001884  79.7904 280.3440 13.16593004214704
ONEWEB-0253             
1 48971U 21060E   25343.30826866  .00000117  00000+0  27151-3 0  9991
2 48971  87.9045 266.5856 0001880  71.3170 288.8165 13.16596486214608
ONEWEB-0254             
1 48972U 21060F   25343.54575475  .00000174  00000+0  42126-3 0  9997
2 48972  87.9051 266.5297 0001946  65.5259 294.6075 13.16597199214631
ONEWEB-0255             
1 48973U 21060G   25343.50775462  .00000068  00000+0  14415-3 0  9994
2 48973  87.9038 266.5536 0001881  68.7367 291.3965 13.16595353214706
ONEWEB-0256             
1 48974U 21060H   25343.53389895  .00000108  00000+0  24992-3 0  9995
2 48974  87.9033 266.5568 0001715  78.8698 281.2625 13.16594404214675
ONEWEB-0257             
1 48975U 21060J   25343.49034890  .00000121  00000+0  28270-3 0  9991
2 48975  87.9046 266.5434 0001902  73.1667 286.9673 13.16595789214621
ONEWEB-0258             
1 48976U 21060K   25343.33994174  .00000036  00000+0  61132-4 0  9995
2 48976  87.9041 266.5888 0001655  71.8625 288.2686 13.16595292214611
ONEWEB-0259             
1 48977U 21060L   25343.48559976  .00000166  00000+0  39955-3 0  9990
2 48977  87.9046 266.5537 0001822  69.5487 290.5839 13.16595822214664
ONEWEB-0260             
1 48978U 21060M   25343.32490681  .00000125  00000+0  29434-3 0  9997
2 48978  87.9034 266.5999 0001927  86.9322 273.2029 13.16594361214623
ONEWEB-0261             
1 48979U 21060N   25343.52280432  .00000046  00000+0  85547-4 0  9991
2 48979  87.9033 266.5624 0002111  71.3960 288.7400 13.16592744214706
ONEWEB-0262             
1 48980U 21060P   25343.50301586  .00000080  00000+0  17632-3 0  9992
2 48980  87.9044 266.5395 0001738  63.9152 296.2157 13.16595270214664
ONEWEB-0263             
1 48981U 21060Q   25343.53467998  .00000106  00000+0  24319-3 0  9995
2 48981  87.9037 266.5477 0002090  68.7113 291.4241 13.16595853214635
