[{"OBJECT_NAME":"ONEWEB-0215","OBJECT_ID":"2021-045AK","EPOCH":"2025-12-09T10:01:17.026752","MEAN_MOTION":13.15549755,"ECCENTRICITY":0.00023761,"INCLINATION":87.9005,"RA_OF_ASC_NODE":297.031,"ARG_OF_PERICENTER":67.0394,"MEAN_ANOMALY":293.0987,"EPHEMERIS_TYPE":0,"CLASSIFICATION_TYPE":"U","NORAD_CAT_ID":48800,"ELEMENT_SET_NO":999,"REV_AT_EPOCH":21934,"BSTAR":0.00023918423,"MEAN_MOTION_DOT":1.03e-6,"MEAN_MOTION_DDOT":0},{"OBJECT_NAME":"ONEWEB-0216","OBJECT_ID":"2021-045AL","EPOCH":"2025-12-09T13:54:01.405152","MEAN_MOTION":13.15549757,"ECCENTRICITY":0.00019809,"INCLINATION":87.8989,"RA_OF_ASC_NODE":297.03,"ARG_OF_PERICENTER":83.1257,"MEAN_ANOMALY":277.0098,"EPHEMERIS_TYPE":0,"CLASSIFICATION_TYPE":"U","NORAD_CAT_ID":48801,"ELEMENT_SET_NO":999,"REV_AT_EPOCH":21937,"BSTAR":0.00040177543,"MEAN_MOTION_DOT":1.64e-6,"MEAN_MOTION_DDOT":0},{"OBJECT_NAME":"ONEWEB-0239","OBJECT_ID":"2021-045AM","EPOCH":"2025-12-09T14:00:51.087168","MEAN_MOTION":13.15550616,"ECCENTRICITY":0.00022533,"INCLINATION":87.8988,"RA_OF_ASC_NODE":297.0437,"ARG_OF_PERICENTER":59.2942,"MEAN_ANOMALY":300.841,"EPHEMERIS_TYPE":0,"CLASSIFICATION_TYPE":"U","NORAD_CAT_ID":48802,"ELEMENT_SET_NO":999,"REV_AT_EPOCH":21941,"BSTAR":0.00015096674,"MEAN_MOTION_DOT":7.0e-7,"MEAN_MOTION_DDOT":0},{"OBJECT_NAME":"ONEWEB-0249","OBJECT_ID":"2021-060A","EPOCH":"2025-12-09T12:22:35.069088","MEAN_MOTION":13.16595273,"ECCENTRICITY":0.00018341,"INCLINATION":87.9043,"RA_OF_ASC_NODE":266.5464,"ARG_OF_PERICENTER":72.0076,"MEAN_ANOMALY":288.1255,"EPHEMERIS_TYPE":0,"CLASSIFICATION_TYPE":"U","NORAD_CAT_ID":48967,"ELEMENT_SET_NO":999,"REV_AT_EPOCH":21465,"BSTAR":2.9260243e-5,"MEAN_MOTION_DOT":2.4e-7,"MEAN_MOTION_DDOT":0},{"OBJECT_NAME":"ONEWEB-0250","OBJECT_ID":"2021-060B","EPOCH":"2025-12-09T12:07:31.878912","MEAN_MOTION":13.25820592,"ECCENTRICITY":0.00014856,"INCLINATION":87.9043,"RA_OF_ASC_NODE":264.925,"ARG_OF_PERICENTER":39.895,"MEAN_ANOMALY":320.2295,"EPHEMERIS_TYPE":0,"CLASSIFICATION_TYPE":"U","NORAD_CAT_ID":48968,"ELEMENT_SET_NO":999,"REV_AT_EPOCH":21508,"BSTAR":0.00023151218,"MEAN_MOTION_DOT":1.15e-6,"MEAN_MOTION_DDOT":0},{"OBJECT_NAME":"ONEWEB-0252","OBJECT_ID":"2021-060D","EPOCH":"2025-12-09T13:08:10.288320","MEAN_MOTION":13.16593004,"ECCENTRICITY":0.00018843,"INCLINATION":87.9042,"RA_OF_ASC_NODE":266.5335,"ARG_OF_PERICENTER":79.7904,"MEAN_ANOMALY":280.344,"EPHEMERIS_TYPE":0,"CLASSIFICATION_TYPE":"U","NORAD_CAT_ID":48970,"ELEMENT_SET_NO":999,"REV_AT_EPOCH":21470,"BSTAR":0.00039814851,"MEAN_MOTION_DOT":1.65e-6,"MEAN_MOTION_DDOT":0},{"OBJECT_NAME":"ONEWEB-0253","OBJECT_ID":"2021-060E","EPOCH":"2025-12-09T07:23:54.412224","MEAN_MOTION":13.16596486,"ECCENTRICITY":0.000188,"INCLINATION":87.9045,"RA_OF_ASC_NODE":266.5856,"ARG_OF_PERICENTER":71.317,"MEAN_ANOMALY":288.8165,"EPHEMERIS_TYPE":0,"CLASSIFICATION_TYPE":"U","NORAD_CAT_ID":48971,"ELEMENT_SET_NO":999,"REV_AT_EPOCH":21460,"BSTAR":0.00027151,"MEAN_MOTION_DOT":1.17e-6,"MEAN_MOTION_DDOT":0},{"OBJECT_NAME":"ONEWEB-0254","OBJECT_ID":"2021-060F","EPOCH":"2025-12-09T13:05:53.210400","MEAN_MOTION":13.16597199,"ECCENTRICITY":0.00019469,"INCLINATION":87.9051,"RA_OF_ASC_NODE":266.5297,"ARG_OF_PERICENTER":65.5259,"MEAN_ANOMALY":294.6075,"EPHEMERIS_TYPE":0,"CLASSIFICATION_TYPE":"U","NORAD_CAT_ID":48972,"ELEMENT_SET_NO":999,"REV_AT_EPOCH":21463,"BSTAR":0.00042125596,"MEAN_MOTION_DOT":1.74e-6,"MEAN_MOTION_DDOT":0},{"OBJECT_NAME":"ONEWEB-0255","OBJECT_ID":"2021-060G","EPOCH":"2025-12-09T12:11:09.999168","MEAN_MOTION":13.16595353,"ECCENTRICITY":0.00018812,"INCLINATION":87.9038,"RA_OF_ASC_NODE":266.5536,"ARG_OF_PERICENTER":68.7367,"MEAN_ANOMALY":291.3965,"EPHEMERIS_TYPE":0,"CLASSIFICATION_TYPE":"U","NORAD_CAT_ID":48973,"ELEMENT_SET_NO":999,"REV_AT_EPOCH":21470,"BSTAR":0.00014415267,"MEAN_MOTION_DOT":6.8e-7,"MEAN_MOTION_DDOT":0},{"OBJECT_NAME":"ONEWEB-0256","OBJECT_ID":"2021-060H","EPOCH":"2025-12-09T12:48:48.869280","MEAN_MOTION":13.16594404,"ECCENTRICITY":0.00017152,"INCLINATION":87.9033,"RA_OF_ASC_NODE":266.5568,"ARG_OF_PERICENTER":78.8698,"MEAN_ANOMALY":281.2625,"EPHEMERIS_TYPE":0,"CLASSIFICATION_TYPE":"U","NORAD_CAT_ID":48974,"ELEMENT_SET_NO":999,"REV_AT_EPOCH":21467,"BSTAR":0.00024991798,"MEAN_MOTION_DOT":1.08e-6,"MEAN_MOTION_DDOT":0},{"OBJECT_NAME":"ONEWEB-0257","OBJECT_ID":"2021-060J","EPOCH":"2025-12-09T11:46:06.144960","MEAN_MOTION":13.16595789,"ECCENTRICITY":0.00019027,"INCLINATION":87.9046,"RA_OF_ASC_NODE":266.5434,"ARG_OF_PERICENTER":73.1667,"MEAN_ANOMALY":286.9673,"EPHEMERIS_TYPE":0,"CLASSIFICATION_TYPE":"U","NORAD_CAT_ID":48975,"ELEMENT_SET_NO":999,"REV_AT_EPOCH":21462,"BSTAR":0.0002827026,"MEAN_MOTION_DOT":1.21e-6,"MEAN_MOTION_DDOT":0},{"OBJECT_NAME":"ONEWEB-0258","OBJECT_ID":"2021-060K","EPOCH":"2025-12-09T08:09:30.966336","MEAN_MOTION":13.16595292,"ECCENTRICITY":0.00016557,"INCLINATION":87.9041,"RA_OF_ASC_NODE":266.5888,"ARG_OF_PERICENTER":71.8625,"MEAN_ANOMALY":288.2686,"EPHEMERIS_TYPE":0,"CLASSIFICATION_TYPE":"U","NORAD_CAT_ID":48976,"ELEMENT_SET_NO":999,"REV_AT_EPOCH":21461,"BSTAR":6.1132365e-5,"MEAN_MOTION_DOT":3.6e-7,"MEAN_MOTION_DDOT":0},{"OBJECT_NAME":"ONEWEB-0259","OBJECT_ID":"2021-060L","EPOCH":"2025-12-09T11:39:15.819264","MEAN_MOTION":13.16595822,"ECCENTRICITY":0.00018224,"INCLINATION":87.9046,"RA_OF_ASC_NODE":266.5537,"ARG_OF_PERICENTER":69.5487,"MEAN_ANOMALY":290.5839,"EPHEMERIS_TYPE":0,"CLASSIFICATION_TYPE":"U","NORAD_CAT_ID":48977,"ELEMENT_SET_NO":999,"REV_AT_EPOCH":21466,"BSTAR":0.00039954596,"MEAN_MOTION_DOT":1.66e-6,"MEAN_MOTION_DDOT":0},{"OBJECT_NAME":"ONEWEB-0260","OBJECT_ID":"2021-060M","EPOCH":"2025-12-09T07:47:51.948384","MEAN_MOTION":13.16594361,"ECCENTRICITY":0.00019273,"INCLINATION":87.9034,"RA_OF_ASC_NODE":266.5999,"ARG_OF_PERICENTER":86.9322,"MEAN_ANOMALY":273.2029,"EPHEMERIS_TYPE":0,"CLASSIFICATION_TYPE":"U","NORAD_CAT_ID":48978,"ELEMENT_SET_NO":999,"REV_AT_EPOCH":21462,"BSTAR":0.00029434326,"MEAN_MOTION_DOT":1.25e-6,"MEAN_MOTION_DDOT":0},{"OBJECT_NAME":"ONEWEB-0261","OBJECT_ID":"2021-060N","EPOCH":"2025-12-09T12:32:50.293248","MEAN_MOTION":13.16592744,"ECCENTRICITY":0.00021112,"INCLINATION":87.9033,"RA_OF_ASC_NODE":266.5624,"ARG_OF_PERICENTER":71.396,"MEAN_ANOMALY":288.74,"EPHEMERIS_TYPE":0,"CLASSIFICATION_TYPE":"U","NORAD_CAT_ID":48979,"ELEMENT_SET_NO":999,"REV_AT_EPOCH":21470,"BSTAR":8.5546909e-5,"MEAN_MOTION_DOT":4.6e-7,"MEAN_MOTION_DDOT":0},{"OBJECT_NAME":"ONEWEB-0262","OBJECT_ID":"2021-060P","EPOCH":"2025-12-09T12:04:20.570304","MEAN_MOTION":13.1659527,"ECCENTRICITY":0.00017385,"INCLINATION":87.9044,"RA_OF_ASC_NODE":266.5395,"ARG_OF_PERICENTER":63.9152,"MEAN_ANOMALY":296.2157,"EPHEMERIS_TYPE":0,"CLASSIFICATION_TYPE":"U","NORAD_CAT_ID":48980,"ELEMENT_SET_NO":999,"REV_AT_EPOCH":21466,"BSTAR":0.00017632476,"MEAN_MOTION_DOT":8.0e-7,"MEAN_MOTION_DDOT":0},{"OBJECT_NAME":"ONEWEB-0263","OBJECT_ID":"2021-060Q","EPOCH":"2025-12-09T12:49:56.350272","MEAN_MOTION":13.16595853,"ECCENTRICITY":0.00020901,"INCLINATION":87.9037,"RA_OF_ASC_NODE":266.5477,"ARG_OF_PERICENTER":68.7113,"MEAN_ANOMALY":291.4241,"EPHEMERIS_TYPE":0,"CLASSIFICATION_TYPE":"U","NORAD_CAT_ID":48981,"ELEMENT_SET_NO":999,"REV_AT_EPOCH":21463,"BSTAR":0.00024318946,"MEAN_MOTION_DOT":1.06e-6,"MEAN_MOTION_DDOT":0}]
